NORAD_CAT_ID,OBJECT_NAME,OBJECT_TYPE,EPOCH,MEAN_MOTION,ECCENTRICITY,INCLINATION,RA_OF_ASC_NODE,ARG_OF_PERICENTER,MEAN_ANOMALY,BSTAR,MEAN_MOTION_DOT,MEAN_MOTION_DDOT,TLE_LINE0,TLE_LINE1,TLE_LINE2,SEMIMAJOR_AXIS,PERIOD,APOGEE,PERIGEE,DECAYED
49451.0,STARLINK-3125,PAYLOAD,2023-12-30 13:34:54,15.08832241,0.0001323,53.2145,211.019,82.9669,277.1473,9.5948e-06,-1.35e-06,0.0,0 STARLINK-3125,1 49451U 21104AV  23364.56591075 -.00000135  00000-0  95948-5 0  9997,2 49451  53.2145 211.0190 0001323  82.9669 277.1473 15.08832241119060,6917.904,95.438,540.684,538.854,0.0
49451.0,STARLINK-3125,PAYLOAD,2023-12-30 21:31:50,15.08842148,0.000151,53.2163,209.5357,81.8444,278.2719,0.00012791,1.748e-05,0.0,0 STARLINK-3125,1 49451U 21104AV  23364.89710789  .00001748  00000-0  12791-3 0  9991,2 49451  53.2163 209.5357 0001510  81.8444 278.2719 15.08842148118032,6917.874,95.437,540.783,538.694,0.0
49451.0,STARLINK-3125,PAYLOAD,2023-12-31 19:47:14,15.08838919,0.0001534,53.2161,205.3693,72.6128,287.5032,0.00010951,1.455e-05,0.0,0 STARLINK-3125,1 49451U 21104AV  23365.82446941  .00001455  00000-0  10951-3 0  9992,2 49451  53.2161 205.3693 0001534  72.6128 287.5032 15.08838919119257,6917.884,95.438,540.81,538.687,0.0
49451.0,STARLINK-3125,PAYLOAD,2024-01-01 13:16:28,15.08848443,0.0001334,53.2153,202.0972,85.5966,274.5178,6.2987e-05,7.15e-06,0.0,0 STARLINK-3125,1 49451U 21104AV  24001.55310312  .00000715  00000-0  62987-4 0  9997,2 49451  53.2153 202.0972 0001334  85.5966 274.5178 15.08848443118285,6917.855,95.437,540.642,538.797,0.0
49451.0,STARLINK-3125,PAYLOAD,2024-01-01 19:38:00,15.08848956,0.0001232,53.2152,200.9073,89.9865,270.1268,5.2239e-05,5.44e-06,0.0,0 STARLINK-3125,1 49451U 21104AV  24001.81806092  .00000544  00000-0  52239-4 0  9990,2 49451  53.2152 200.9073 0001232  89.9865 270.1268 15.08848956119402,6917.853,95.437,540.57,538.866,0.0
49451.0,STARLINK-3125,PAYLOAD,2024-01-02 19:28:48,15.08831797,0.0001189,53.2153,196.4457,104.5969,255.5155,-3.0041e-06,-3.36e-06,0.0,0 STARLINK-3125,1 49451U 21104AV  24002.81167749 -.00000336  00000-0 -30041-5 0  9999,2 49451  53.2153 196.4457 0001189 104.5969 255.5155 15.08831797119551,6917.905,95.438,540.593,538.948,0.0
49451.0,STARLINK-3125,PAYLOAD,2024-01-02 22:39:35,15.08832533,0.0001237,53.2153,195.8508,104.4334,255.6796,1.7856e-06,-2.59e-06,0.0,0 STARLINK-3125,1 49451U 21104AV  24002.94415756 -.00000259  00000-0  17856-5 0  9999,2 49451  53.2153 195.8508 0001237 104.4334 255.6796 15.08832533118493,6917.903,95.438,540.624,538.912,0.0
49451.0,STARLINK-3125,PAYLOAD,2024-01-03 19:19:35,15.08840138,0.0001195,53.2154,191.9845,113.7508,246.3609,4.5008e-05,4.29e-06,0.0,0 STARLINK-3125,1 49451U 21104AV  24003.80527495  .00000429  00000-0  45008-4 0  9996,2 49451  53.2154 191.9845 0001195 113.7508 246.3609 15.08840138119709,6917.88,95.438,540.572,538.918,0.0
49451.0,STARLINK-3125,PAYLOAD,2024-01-04 12:48:50,15.08840387,0.0001154,53.2149,188.7138,104.084,256.028,0.00018833,2.711e-05,0.0,0 STARLINK-3125,1 49451U 21104AV  24004.53391836  .00002711  00000-0  18833-3 0  9996,2 49451  53.2149 188.7138 0001154 104.0840 256.0280 15.08840387118730,6917.879,95.438,540.543,538.946,0.0
49451.0,STARLINK-3125,PAYLOAD,2024-01-04 19:10:22,15.08843447,0.0001161,53.2149,187.5242,107.3297,252.7822,0.00020593,2.991e-05,0.0,0 STARLINK-3125,1 49451U 21104AV  24004.79887672  .00002991  00000-0  20593-3 0  9998,2 49451  53.2149 187.5242 0001161 107.3297 252.7822 15.08843447118772,6917.87,95.437,540.538,538.932,0.0
49451.0,STARLINK-3125,PAYLOAD,2024-01-05 19:01:09,15.08847855,0.000116,53.2151,183.063,106.7788,253.3332,0.00012927,1.771e-05,0.0,0 STARLINK-3125,1 49451U 21104AV  24005.79247185  .00001771  00000-0  12927-3 0  9995,2 49451  53.2151 183.0630 0001160 106.7788 253.3332 15.08847855120003,6917.856,95.437,540.524,538.919,0.0
49451.0,STARLINK-3125,PAYLOAD,2024-01-05 20:36:32,15.08849115,0.0001144,53.2151,182.7657,104.3207,255.7912,0.00014199,1.973e-05,0.0,0 STARLINK-3125,1 49451U 21104AV  24005.85871101  .00001973  00000-0  14199-3 0  9990,2 49451  53.2151 182.7657 0001144 104.3207 255.7912 15.08849115118930,6917.853,95.437,540.509,538.926,0.0
49451.0,STARLINK-3125,PAYLOAD,2024-01-06 18:51:56,15.08845457,0.0001132,53.2151,178.6024,99.8855,260.2264,4.6211e-05,4.48e-06,0.0,0 STARLINK-3125,1 49451U 21104AV  24006.78606993  .00000448  00000-0  46211-4 0  9995,2 49451  53.2151 178.6024 0001132  99.8855 260.2264 15.08845457120159,6917.864,95.437,540.512,538.946,0.0
49451.0,STARLINK-3125,PAYLOAD,2024-01-06 20:27:19,15.08846364,0.0001119,53.2162,178.3047,101.84,258.2718,8.1869e-05,1.016e-05,0.0,0 STARLINK-3125,1 49451U 21104AV  24006.85231149  .00001016  00000-0  81869-4 0  9990,2 49451  53.2162 178.3047 0001119 101.8400 258.2718 15.08846364119087,6917.861,95.437,540.5,538.952,0.0
49451.0,STARLINK-3125,PAYLOAD,2024-01-07 10:45:48,15.08845037,0.0001288,53.2173,175.6309,87.3389,272.775,6.8736e-05,8.06e-06,0.0,0 STARLINK-3125,1 49451U 21104AV  24007.44847245  .00000806  00000-0  68736-4 0  9990,2 49451  53.2173 175.6309 0001288  87.3389 272.7750 15.08845037119174,6917.865,95.437,540.621,538.839,0.0
49451.0,STARLINK-3125,PAYLOAD,2024-01-07 18:42:43,15.08846362,0.000122,53.217,174.1442,86.0295,274.0837,6.0988e-05,6.83e-06,0.0,0 STARLINK-3125,1 49451U 21104AV  24007.77967041  .00000683  00000-0  60988-4 0  9997,2 49451  53.2170 174.1442 0001220  86.0295 274.0837 15.08846362119220,6917.861,95.437,540.57,538.882,0.0
49451.0,STARLINK-3125,PAYLOAD,2024-01-08 10:36:34,15.08843416,0.0001163,53.2167,171.1707,88.9175,271.195,5.5321e-05,5.93e-06,0.0,0 STARLINK-3125,1 49451U 21104AV  24008.44207071  .00000593  00000-0  55321-4 0  9997,2 49451  53.2167 171.1707 0001163  88.9175 271.1950 15.08843416120404,6917.87,95.437,540.539,538.93,0.0
49451.0,STARLINK-3125,PAYLOAD,2024-01-08 16:58:07,15.08844979,0.0001183,53.2166,169.9812,87.1496,272.9632,6.3587e-05,7.24e-06,0.0,0 STARLINK-3125,1 49451U 21104AV  24008.70702895  .00000724  00000-0  63587-4 0  9999,2 49451  53.2166 169.9812 0001183  87.1496 272.9632 15.08844979119368,6917.865,95.437,540.549,538.912,0.0
49451.0,STARLINK-3125,PAYLOAD,2024-01-09 16:48:54,15.08845832,0.0001397,53.2169,165.5219,67.8759,292.2381,9.1272e-05,1.165e-05,0.0,0 STARLINK-3125,1 49451U 21104AV  24009.70062725  .00001165  00000-0  91272-4 0  9993,2 49451  53.2169 165.5219 0001397  67.8759 292.2381 15.08845832120590,6917.863,95.437,540.694,538.761,0.0
49451.0,STARLINK-3125,PAYLOAD,2024-01-09 19:59:40,15.08849877,0.0001239,53.2163,164.9259,75.9988,284.1141,0.00011915,1.609e-05,0.0,0 STARLINK-3125,1 49451U 21104AV  24009.83310263  .00001609  00000-0  11915-3 0  9998,2 49451  53.2163 164.9259 0001239  75.9988 284.1141 15.08849877119539,6917.85,95.437,540.572,538.858,0.0
49451.0,STARLINK-3125,PAYLOAD,2024-01-10 10:18:08,15.08842166,0.0001111,53.2165,162.2439,126.2622,233.8473,-2.4241e-05,-6.74e-06,0.0,0 STARLINK-3125,1 49451U 21104AV  24010.42926857 -.00000674  00000-0 -24241-4 0  9997,2 49451  53.2165 162.2439 0001111 126.2622 233.8473 15.08842166120700,6917.874,95.437,540.507,538.97,0.0
49451.0,STARLINK-3125,PAYLOAD,2024-01-11 10:08:56,15.08817794,0.000135,53.217,157.7853,108.0674,252.0465,0.00033933,5.113e-05,0.0,0 STARLINK-3125,1 49451U 21104AV  24011.42287084  .00005113  00000-0  33933-3 0  9998,2 49451  53.2170 157.7853 0001350 108.0674 252.0465 15.08817794120854,6917.948,95.439,540.747,538.879,0.0
49451.0,STARLINK-3125,PAYLOAD,2024-01-11 14:55:05,15.08820263,0.0001565,53.2164,156.8945,128.2547,231.8586,0.00035639,5.386e-05,0.0,0 STARLINK-3125,1 49451U 21104AV  24011.62159084  .00005386  00000-0  35639-3 0  9995,2 49451  53.2164 156.8945 0001565 128.2547 231.8586 15.08820263119807,6917.941,95.439,540.888,538.723,0.0
49451.0,STARLINK-3125,PAYLOAD,2024-01-12 13:10:29,15.08835779,0.0001268,53.2162,152.7325,88.1488,271.965,5.1804e-05,5.37e-06,0.0,0 STARLINK-3125,1 49451U 21104AV  24012.54895555  .00000537  00000-0  51804-4 0  9993,2 49451  53.2162 152.7325 0001268  88.1488 271.9650 15.08835779119940,6917.893,95.438,540.635,538.881,0.0
49451.0,STARLINK-3125,PAYLOAD,2024-01-12 16:21:15,15.08840961,0.0001317,53.2161,152.1376,94.3099,265.8043,7.4063e-05,8.91e-06,0.0,0 STARLINK-3125,1 49451U 21104AV  24012.68143159  .00000891  00000-0  74063-4 0  9999,2 49451  53.2161 152.1376 0001317  94.3099 265.8043 15.08840961121042,6917.877,95.437,540.654,538.831,0.0
49451.0,STARLINK-3125,PAYLOAD,2024-01-13 09:50:30,15.08835867,0.0001311,53.2157,148.8668,93.4833,266.6309,4.8507e-05,4.84e-06,0.0,0 STARLINK-3125,1 49451U 21104AV  24013.41007772  .00000484  00000-0  48507-4 0  9993,2 49451  53.2157 148.8668 0001311  93.4833 266.6309 15.08835867121158,6917.893,95.438,540.665,538.851,0.0
49451.0,STARLINK-3125,PAYLOAD,2024-01-13 14:36:40,15.08839251,0.0001274,53.2156,147.9752,90.4622,269.6516,5.713e-05,6.21e-06,0.0,0 STARLINK-3125,1 49451U 21104AV  24013.60879656  .00000621  00000-0  57130-4 0  9997,2 49451  53.2156 147.9752 0001274  90.4622 269.6516 15.08839251120100,6917.883,95.438,540.629,538.866,0.0
49451.0,STARLINK-3125,PAYLOAD,2024-01-13 19:22:49,15.08844308,0.0001301,53.2158,147.0826,91.3354,268.7787,0.00012193,1.653e-05,0.0,0 STARLINK-3125,1 49451U 21104AV  24013.80751213  .00001653  00000-0  12193-3 0  9992,2 49451  53.2158 147.0826 0001301  91.3354 268.7787 15.08844308121210,6917.867,95.437,540.632,538.832,0.0
49451.0,STARLINK-3125,PAYLOAD,2024-01-14 12:52:04,15.08837609,0.0001337,53.2161,143.8103,93.5503,266.5642,3.0818e-05,2.03e-06,0.0,0 STARLINK-3125,1 49451U 21104AV  24014.53616127  .00000203  00000-0  30818-4 0  9992,2 49451  53.2161 143.8103 0001337  93.5503 266.5642 15.08837609121329,6917.888,95.438,540.678,538.828,0.0
49451.0,STARLINK-3125,PAYLOAD,2024-01-14 14:27:27,15.08839809,0.0001442,53.2164,143.5127,92.8751,267.2406,7.1257e-05,8.46e-06,0.0,0 STARLINK-3125,1 49451U 21104AV  24014.60239880  .00000846  00000-0  71257-4 0  9992,2 49451  53.2164 143.5127 0001442  92.8751 267.2406 15.08839809120250,6917.881,95.438,540.744,538.748,0.0
